NORAD_CAT_ID,OBJECT_NAME,OBJECT_TYPE,EPOCH,MEAN_MOTION,ECCENTRICITY,INCLINATION,RA_OF_ASC_NODE,ARG_OF_PERICENTER,MEAN_ANOMALY,BSTAR,MEAN_MOTION_DOT,MEAN_MOTION_DDOT,TLE_LINE0,TLE_LINE1,TLE_LINE2,SEMIMAJOR_AXIS,PERIOD,APOGEE,PERIGEE,DECAYED
56786.0,STARLINK-6341,PAYLOAD,2024-04-03 20:21:02,14.98330154,0.000321,69.9987,301.6678,269.4025,90.6766,5.6034e-05,5.76e-06,0.0,0 STARLINK-6341,1 56786U 23078V   24094.84794191  .00000576  00000-0  56034-4 0  9994,2 56786  69.9987 301.6678 0003210 269.4025  90.6766 14.98330154 47853,6950.192,96.107,574.288,569.826,0.0
56786.0,STARLINK-6341,PAYLOAD,2024-04-04 13:58:30,14.98331094,0.0003178,69.9987,299.8161,269.515,90.5645,1.0929e-05,3.7e-07,0.0,0 STARLINK-6341,1 56786U 23078V   24095.58230225  .00000037  00000-0  10929-4 0  9994,2 56786  69.9987 299.8161 0003178 269.5150  90.5645 14.98331094 47704,6950.19,96.107,574.263,569.846,0.0
56786.0,STARLINK-6341,PAYLOAD,2024-04-04 20:23:02,14.98335413,0.000315,69.9986,299.1428,269.7187,90.3611,6.137e-05,6.39e-06,0.0,0 STARLINK-6341,1 56786U 23078V   24095.84933765  .00000639  00000-0  61370-4 0  9996,2 56786  69.9986 299.1428 0003150 269.7187  90.3611 14.98335413 48008,6950.176,96.107,574.23,569.852,0.0
56786.0,STARLINK-6341,PAYLOAD,2024-04-04 21:59:10,14.98337089,0.0002588,69.9994,298.9738,268.1538,91.9324,0.00010425,1.151e-05,0.0,0 STARLINK-6341,1 56786U 23078V   24095.91609566  .00001151  00000-0  10425-3 0  9997,2 56786  69.9994 298.9738 0002588 268.1538  91.9324 14.98337089 47755,6950.171,96.107,573.835,570.237,0.0
56786.0,STARLINK-6341,PAYLOAD,2024-04-04 23:35:17,14.98358397,0.0002986,69.9987,298.8059,270.4195,89.6622,0.00030498,3.55e-05,0.0,0 STARLINK-6341,1 56786U 23078V   24095.98283603  .00003550  00000-0  30498-3 0  9991,2 56786  69.9987 298.8059 0002986 270.4195  89.6622 14.98358397 48020,6950.105,96.105,574.045,569.895,0.0
56786.0,STARLINK-6341,PAYLOAD,2024-04-05 14:00:31,14.98332517,0.0003168,69.9987,297.2909,271.5359,88.5437,-1.6162e-05,-2.86e-06,0.0,0 STARLINK-6341,1 56786U 23078V   24096.58369715 -.00000286  00000-0 -16162-4 0  9995,2 56786  69.9987 297.2909 0003168 271.5359  88.5437 14.98332517 47852,6950.185,96.107,574.252,569.848,0.0
56786.0,STARLINK-6341,PAYLOAD,2024-04-05 20:25:04,14.98326667,0.00032,69.9984,296.6177,266.8661,93.2132,-8.4424e-05,-1.1e-05,0.0,0 STARLINK-6341,1 56786U 23078V   24096.85074201 -.00001100  00000-0 -84424-4 0  9990,2 56786  69.9984 296.6177 0003200 266.8661  93.2132 14.98326667 48157,6950.203,96.107,574.292,569.844,0.0
56786.0,STARLINK-6341,PAYLOAD,2024-04-05 22:01:12,14.98327347,0.0003051,69.9984,296.4492,265.1053,94.9758,-7.608e-05,-1.001e-05,0.0,0 STARLINK-6341,1 56786U 23078V   24096.91750129 -.00001001  00000-0 -76080-4 0  9996,2 56786  69.9984 296.4492 0003051 265.1053  94.9758 14.98327347 47906,6950.201,96.107,574.187,569.946,0.0
56786.0,STARLINK-6341,PAYLOAD,2024-04-06 12:26:24,14.98327211,0.0003016,69.9982,294.9338,266.1048,93.9767,-7.7635e-05,-1.019e-05,0.0,0 STARLINK-6341,1 56786U 23078V   24097.51834194 -.00001019  00000-0 -77635-4 0  9994,2 56786  69.9982 294.9338 0003016 266.1048  93.9767 14.98327211 47990,6950.202,96.107,574.163,569.97,0.0
56786.0,STARLINK-6341,PAYLOAD,2024-04-06 22:03:12,14.98330411,0.0003025,69.9982,293.9238,268.2989,91.7823,-6.3948e-05,-8.56e-06,0.0,0 STARLINK-6341,1 56786U 23078V   24097.91889959 -.00000856  00000-0 -63948-4 0  9997,2 56786  69.9982 293.9238 0003025 268.2989  91.7823 14.98330411 48058,6950.192,96.107,574.159,569.954,0.0
56786.0,STARLINK-6341,PAYLOAD,2024-04-07 12:28:25,14.98323949,0.000291,69.9982,292.409,265.1043,94.9784,4.2065e-05,4.09e-06,0.0,0 STARLINK-6341,1 56786U 23078V   24098.51973949  .00000409  00000-0  42065-4 0  9996,2 56786  69.9982 292.4090 0002910 265.1043  94.9784 14.98323949 48146,6950.212,96.107,574.099,570.054,0.0
56786.0,STARLINK-6341,PAYLOAD,2024-04-07 22:05:13,14.98325247,0.0002902,69.9983,291.399,264.3793,95.7035,5.0948e-05,5.15e-06,0.0,0 STARLINK-6341,1 56786U 23078V   24098.92029960  .00000515  00000-0  50948-4 0  9993,2 56786  69.9983 291.3990 0002902 264.3793  95.7035 14.98325247 48206,6950.208,96.107,574.09,570.056,0.0
56786.0,STARLINK-6341,PAYLOAD,2024-04-07 23:41:21,14.98325457,0.0002902,69.9983,291.2307,264.3596,95.7232,5.1937e-05,5.27e-06,0.0,0 STARLINK-6341,1 56786U 23078V   24098.98705961  .00000527  00000-0  51937-4 0  9993,2 56786  69.9983 291.2307 0002902 264.3596  95.7232 14.98325457 48479,6950.207,96.107,574.089,570.055,0.0
56786.0,STARLINK-6341,PAYLOAD,2024-04-08 22:07:14,14.98329219,0.0002893,69.9982,288.874,264.9809,95.1019,3.3648e-05,3.08e-06,0.0,0 STARLINK-6341,1 56786U 23078V   24099.92169924  .00000308  00000-0  33648-4 0  9997,2 56786  69.9982 288.8740 0002893 264.9809  95.1019 14.98329219 48357,6950.195,96.107,574.071,570.05,0.0
56786.0,STARLINK-6341,PAYLOAD,2024-04-09 12:32:27,14.98329029,0.0002928,69.9982,287.359,266.0955,93.9869,1.1081e-05,3.9e-07,0.0,0 STARLINK-6341,1 56786U 23078V   24100.52254005  .00000039  00000-0  11081-4 0  9999,2 56786  69.9982 287.3590 0002928 266.0955  93.9869 14.98329029 48705,6950.196,96.107,574.096,570.026,0.0
56786.0,STARLINK-6341,PAYLOAD,2024-04-10 10:58:20,14.98329324,0.0002868,69.9967,285.0016,265.4885,94.5947,-1.33e-06,-1.09e-06,0.0,0 STARLINK-6341,1 56786U 23078V   24101.45718008 -.00000109  00000-0 -13300-5 0  9997,2 56786  69.9967 285.0016 0002868 265.4885  94.5947 14.98329324 48582,6950.195,96.107,574.053,570.067,0.0
56786.0,STARLINK-6341,PAYLOAD,2024-04-10 20:35:08,14.98327004,0.0002939,69.9985,283.9924,267.3949,92.6873,-2.7518e-05,-4.21e-06,0.0,0 STARLINK-6341,1 56786U 23078V   24101.85774270 -.00000421  00000-0 -27518-4 0  9996,2 56786  69.9985 283.9924 0002939 267.3949  92.6873 14.98327004 48904,6950.202,96.107,574.11,570.024,0.0
56786.0,STARLINK-6341,PAYLOAD,2024-04-10 22:11:17,14.98327371,0.0002934,69.9987,283.824,267.408,92.6744,-2.1916e-05,-3.54e-06,0.0,0 STARLINK-6341,1 56786U 23078V   24101.92450241 -.00000354  00000-0 -21916-4 0  9994,2 56786  69.9987 283.8240 0002934 267.4080  92.6744 14.98327371 48654,6950.201,96.107,574.105,570.027,0.0
56786.0,STARLINK-6341,PAYLOAD,2024-04-11 14:12:37,14.98329333,0.0002951,69.9987,282.1407,267.5102,92.5719,6.4072e-06,-1.7e-07,0.0,0 STARLINK-6341,1 56786U 23078V   24102.59210056 -.00000017  00000-0  64072-5 0  9992,2 56786  69.9987 282.1407 0002951 267.5102  92.5719 14.98329333 48758,6950.195,96.107,574.111,570.009,0.0
56786.0,STARLINK-6341,PAYLOAD,2024-04-11 20:37:09,14.98331394,0.0002942,69.9991,281.4674,268.812,91.2702,9.0659e-06,1.5e-07,0.0,0 STARLINK-6341,1 56786U 23078V   24102.85913918  .00000015  00000-0  90659-5 0  9995,2 56786  69.9991 281.4674 0002942 268.8120  91.2702 14.98331394 49057,6950.189,96.107,574.098,570.009,0.0
56786.0,STARLINK-6341,PAYLOAD,2024-04-11 22:13:17,14.98331728,0.0002939,69.9992,281.299,268.8558,91.2265,1.2915e-05,6.1e-07,0.0,0 STARLINK-6341,1 56786U 23078V   24102.92589881  .00000061  00000-0  12915-4 0  9990,2 56786  69.9992 281.2990 0002939 268.8558  91.2265 14.98331728 48805,6950.188,96.107,574.095,570.01,0.0
56786.0,STARLINK-6341,PAYLOAD,2024-04-12 14:14:38,14.98329813,0.0002958,69.999,279.6156,269.0497,91.0323,4.7759e-05,4.77e-06,0.0,0 STARLINK-6341,1 56786U 23078V   24103.59349827  .00000477  00000-0  47759-4 0  9993,2 56786  69.9990 279.6156 0002958 269.0497  91.0323 14.98329813 48900,6950.193,96.107,574.114,570.003,0.0
56786.0,STARLINK-6341,PAYLOAD,2024-04-13 12:40:30,14.9833324,0.000295,69.9992,277.2593,267.3732,92.709,1.6323e-05,1.02e-06,0.0,0 STARLINK-6341,1 56786U 23078V   24104.52813562  .00000102  00000-0  16323-4 0  9997,2 56786  69.9992 277.2593 0002950 267.3732  92.7090 14.98333240 49309,6950.183,96.107,574.098,569.998,0.0
56786.0,STARLINK-6341,PAYLOAD,2024-04-13 14:16:38,14.98332864,0.0002954,69.9991,277.091,266.8654,93.2167,1.1799e-05,4.8e-07,0.0,0 STARLINK-6341,1 56786U 23078V   24104.59489577  .00000048  00000-0  11799-4 0  9990,2 56786  69.9991 277.0910 0002954 266.8654  93.2167 14.98332864 49054,6950.184,96.107,574.102,569.996,0.0
56786.0,STARLINK-6341,PAYLOAD,2024-04-13 20:41:11,14.98330332,0.000294,69.9993,276.4178,265.7232,94.3591,3.3654e-05,3.09e-06,0.0,0 STARLINK-6341,1 56786U 23078V   24104.86193633  .00000309  00000-0  33654-4 0  9999,2 56786  69.9993 276.4178 0002940 265.7232  94.3591 14.98330332 49095,6950.192,96.107,574.1,570.014,0.0
56786.0,STARLINK-6341,PAYLOAD,2024-04-14 12:42:32,14.98342683,0.0002782,70.0,274.736,260.8605,99.224,-0.00028118,-3.447e-05,0.0,0 STARLINK-6341,1 56786U 23078V   24105.52953777 -.00003447  00000-0 -28118-3 0  9992,2 56786  70.0000 274.7360 0002782 260.8605  99.2240 14.98342683 49452,6950.154,96.106,573.952,570.085,0.0
56786.0,STARLINK-6341,PAYLOAD,2024-04-14 20:43:12,14.98327952,0.0002812,70.0,273.8937,260.4852,99.5989,-4.3592e-05,-6.13e-06,0.0,0 STARLINK-6341,1 56786U 23078V   24105.86333959 -.00000613  00000-0 -43592-4 0  9999,2 56786  70.0000 273.8937 0002812 260.4852  99.5989 14.98327952 49248,6950.199,96.107,574.019,570.11,0.0
56786.0,STARLINK-6341,PAYLOAD,2024-04-15 14:20:41,14.98328056,0.0002798,70.0001,272.0422,258.4446,101.6399,-1.0223e-05,-2.15e-06,0.0,0 STARLINK-6341,1 56786U 23078V   24106.59769879 -.00000215  00000-0 -10223-4 0  9997,2 56786  70.0001 272.0422 0002798 258.4446 101.6399 14.98328056 49356,6950.199,96.107,574.009,570.119,0.0
56786.0,STARLINK-6341,PAYLOAD,2024-04-15 20:45:13,14.98329774,0.0002829,70.0,271.3687,262.2211,97.8627,9.8059e-06,2.4e-07,0.0,0 STARLINK-6341,1 56786U 23078V   24106.86473754  .00000024  00000-0  98059-5 0  9991,2 56786  70.0000 271.3687 0002829 262.2211  97.8627 14.98329774 49659,6950.194,96.107,574.025,570.092,0.0
56786.0,STARLINK-6341,PAYLOAD,2024-04-16 14:22:42,14.98329371,0.0003023,69.9994,269.5149,270.4882,89.5931,4.1744e-05,4.05e-06,0.0,0 STARLINK-6341,1 56786U 23078V   24107.59909730  .00000405  00000-0  41744-4 0  9991,2 56786  69.9994 269.5149 0003023 270.4882  89.5931 14.98329371 49505,6950.195,96.107,574.161,569.959,0.0
